STARLINK-5114           
1 54003U 22125AR  26068.67832207 -.00000798  00000+0 -32045-4 0  9994
2 54003  53.2166 213.9720 0001252  89.6387 270.4749 15.08839406189467
DISKSAT B               
1 67220U 25305B   26068.81497770  .00012481  00000+0  82401-3 0  9990
2 67220  45.0018 250.2098 0003783 311.4052  48.6498 15.07484556 12311
